QIANFAN-145             
1 69104U 26108A   26164.82363916 -.02073940  00000+0 -13825+1 0  9999
2 69104  89.0101  22.5972 0014257 132.4130 227.8260 14.05311278  3867
QIANFAN-146             
1 69105U 26108B   26164.86735897 -.01695440  00000+0 -10278+1 0  9998
2 69105  89.0108  22.5681 0018615 104.6869 255.6381 14.10364472  3889
QIANFAN-147             
1 69106U 26108C   26164.87423806 -.01960672  00000+0 -12706+1 0  9994
2 69106  89.0102  22.5866 0015221 116.8314 243.4427 14.06641037  3874
QIANFAN-148             
1 69107U 26108D   26164.86857407 -.01910359  00000+0 -12659+1 0  9996
2 69107  89.0102  22.5860 0018573 134.0513 226.2203 14.05274529  3873
QIANFAN-149             
1 69108U 26108E   26165.00926997  .00000067  00000+0  30668-4 0  9992
2 69108  89.0113  22.5707 0016553 122.2975 237.9815 14.09076243  3890
QIANFAN-150             
1 69109U 26108F   26165.49180181  .00000019  00000+0  29336-5 0  9991
2 69109  89.0115  22.5142 0016812 120.8429 239.4413 14.10188546  3963
QIANFAN-151             
1 69110U 26108G   26164.84741773 -.01930369  00000+0 -12621+1 0  9998
2 69110  89.0114  22.5830 0016149 128.9940 231.2683 14.06080708  3873
QIANFAN-152             
1 69111U 26108H   26164.83687259 -.01893806  00000+0 -12009+1 0  9990
2 69111  89.0106  22.5818 0017010 119.1577 241.1311 14.07695038  3874
QIANFAN-153             
1 69112U 26108J   26164.83202826 -.01813846  00000+0 -11764+1 0  9997
2 69112  89.0102  22.5801 0016263 122.6383 237.6371 14.06943309  3878
QIANFAN-154             
1 69113U 26108K   26164.82503329 -.02090587  00000+0 -13179+1 0  9991
2 69113  89.0112  22.5808 0020004 110.5588 249.7744 14.08392809  3871
QIANFAN-155             
1 69114U 26108L   26164.83018747 -.02073335  00000+0 -13260+1 0  9991
2 69114  89.0103  22.5813 0019322 116.5625 243.7541 14.07567838  3871
QIANFAN-156             
1 69115U 26108M   26163.96413537 -.01951408  00000+0 -11885+1 0  9997
2 69115  89.0116  22.6746 0021312 111.6361 248.7096 14.09991528  3753
QIANFAN-157             
1 69116U 26108N   26164.85246926 -.01902602  00000+0 -11421+1 0  9991
2 69116  89.0107  22.5657 0021894 117.5197 242.8216 14.10677837  3880
QIANFAN-158             
1 69117U 26108P   26165.65443236  .00000086  00000+0  37863-4 0  9998
2 69117  89.0111  22.4828 0016471 119.8418 240.4408 14.13619131  3996
QIANFAN-159             
1 69118U 26108Q   26164.86726216 -.02009509  00000+0 -12085+1 0  9991
2 69118  89.0104  22.5675 0016714 100.0534 260.2538 14.10847637  3884
QIANFAN-160             
1 69119U 26108R   26164.86371994 -.01916835  00000+0 -11751+1 0  9998
2 69119  89.0109  22.5680 0017565 106.3316 253.9802 14.09596494  3881
QIANFAN-161             
1 69120U 26108S   26164.92622339  .00000083  00000+0  34765-4 0  9999
2 69120  89.0115  22.5587 0015540 122.9513 237.3171 14.16181151  3894
QIANFAN-162             
1 69121U 26108T   26164.85099930 -.01773185  00000+0 -10533+1 0  9993
2 69121  89.0108  22.5660 0021484 121.5380 238.7908 14.11632797  3884
SMILE                   
1 69123U 26109A   26144.65318427 -.00001976  00000+0 -42379-3 0  9994
2 69123  70.0007 229.2745 0009123 259.5159 100.4951 14.57062785   802
STARLINK-37726          
1 69124U 26110A   26165.84328638  .00035209  00000+0  64559-3 0  9994
2 69124  97.2833   2.0404 0001508  93.6717 266.4707 15.49213356  5234
STARLINK-37722          
1 69125U 26110B   26165.83987189  .00052397  00000+0  95770-3 0  9992
2 69125  97.2827   2.1976 0001326   1.6474 358.4781 15.49218041  5241
STARLINK-37715          
1 69126U 26110C   26165.83339119  .00056064  00000+0  17281-2 0  9992
2 69126  97.2839   2.2276 0001742  92.2395 317.7997 15.33407570  5279
STARLINK-37706          
1 69127U 26110D   26165.83339119  .00054670  00000+0  16855-2 0  9990
2 69127  97.2842   2.2348 0001601  89.2809 335.7497 15.33407352  5277
STARLINK-37723          
1 69128U 26110E   26165.83339119  .00050950  00000+0  15721-2 0  9999
2 69128  97.2844   2.2400 0001359  96.1421 343.8958 15.33399420  5274
STARLINK-37720          
1 69129U 26110F   26165.51154014  .00073011  00000+0  13295-2 0  9991
2 69129  97.2838   1.7250 0001965  81.4592 278.6882 15.49234569  5184
STARLINK-37533          
1 69130U 26110G   26165.83339119  .00049831  00000+0  15378-2 0  9996
2 69130  97.2846   2.2575 0001354  97.1374  27.9100 15.33400750  5273
STARLINK-37530          
1 69131U 26110H   26165.83339119  .00051696  00000+0  15947-2 0  9991
2 69131  97.2843   2.2655 0001957  88.6606  51.3823 15.33404710  5275
STARLINK-37660          
1 69132U 26110J   26165.82503791 -.00130113  00000+0 -25402-2 0  9991
2 69132  97.2830   2.2174 0001031 306.9800  53.1356 15.47921328  5245
STARLINK-37633          
1 69133U 26110K   26165.81918852  .00036991  00000+0  67786-3 0  9998
2 69133  97.2828   2.2251 0001344  95.9462 264.1942 15.49220590  5245
